NORAD_CAT_ID,OBJECT_NAME,OBJECT_TYPE,EPOCH,MEAN_MOTION,ECCENTRICITY,INCLINATION,RA_OF_ASC_NODE,ARG_OF_PERICENTER,MEAN_ANOMALY,BSTAR,MEAN_MOTION_DOT,MEAN_MOTION_DDOT,TLE_LINE0,TLE_LINE1,TLE_LINE2,SEMIMAJOR_AXIS,PERIOD,APOGEE,PERIGEE,DECAYED
52636.0,STARLINK-3967,PAYLOAD,2023-03-12 19:25:52,15.08867188,9.71e-05,53.2141,135.2502,117.9666,242.1424,0.0020042,0.00031777,0.0,0 STARLINK-3967,1 52636U 22052AQ  23071.80963011  .00031777  00000-0  20042-2 0  9999,2 52636  53.2141 135.2502 0000971 117.9666 242.1424 15.08867188 46383,6917.797,95.436,540.334,538.991,0.0
52636.0,STARLINK-3967,PAYLOAD,2023-03-13 04:58:10,15.08835874,7.99e-05,53.2141,133.4657,127.284,232.8225,-0.0010221,-0.00016515,0.0,0 STARLINK-3967,1 52636U 22052AQ  23072.20706780 -.00016515  00000-0 -10221-2 0  9995,2 52636  53.2141 133.4657 0000799 127.2840 232.8225 15.08835874 46449,6917.893,95.438,540.311,539.205,0.0
52636.0,STARLINK-3967,PAYLOAD,2023-03-13 12:55:06,15.088358,6.71e-05,53.214,131.9789,126.7452,233.3602,0.00026374,3.912e-05,0.0,0 STARLINK-3967,1 52636U 22052AQ  23072.53827058  .00003912  00000-0  26374-3 0  9995,2 52636  53.2140 131.9789 0000671 126.7452 233.3602 15.08835800 46117,6917.893,95.438,540.222,539.294,0.0
52636.0,STARLINK-3967,PAYLOAD,2023-03-13 16:05:52,15.08839025,6.83e-05,53.2139,131.3841,130.8321,229.273,0.00099835,0.00015636,0.0,0 STARLINK-3967,1 52636U 22052AQ  23072.67075175  .00015636  00000-0  99835-3 0  9993,2 52636  53.2139 131.3841 0000683 130.8321 229.2730 15.08839025 46515,6917.883,95.438,540.221,539.276,0.0
52636.0,STARLINK-3967,PAYLOAD,2023-03-14 09:35:08,15.08833609,4.22e-05,53.2138,128.1132,327.1577,32.9389,0.0011214,0.00017601,0.0,0 STARLINK-3967,1 52636U 22052AQ  23073.39939990  .00017601  00000-0  11214-2 0  9995,2 52636  53.2138 128.1132 0000422 327.1577  32.9389 15.08833609 46629,6917.9,95.438,540.057,539.473,0.0
52636.0,STARLINK-3967,PAYLOAD,2023-03-14 12:45:54,15.08817116,3.84e-05,53.2138,127.5185,83.1607,276.9429,0.0004363,6.659e-05,0.0,0 STARLINK-3967,1 52636U 22052AQ  23073.53188623  .00006659  00000-0  43630-3 0  9999,2 52636  53.2138 127.5185 0000384  83.1607 276.9429 15.08817116 46260,6917.95,95.439,540.081,539.55,0.0
52636.0,STARLINK-3967,PAYLOAD,2023-03-14 20:42:50,15.08842149,3.74e-05,53.2139,126.0315,131.5299,228.5725,0.0019908,0.0003154,0.0,0 STARLINK-3967,1 52636U 22052AQ  23073.86308673  .00031540  00000-0  19908-2 0  9991,2 52636  53.2139 126.0315 0000374 131.5299 228.5725 15.08842149 46316,6917.874,95.437,539.998,539.48,0.0
52636.0,STARLINK-3967,PAYLOAD,2023-03-15 03:04:22,15.0887885,3.35e-05,53.2139,124.8418,131.6372,228.4649,0.0037193,0.00059468,0.0,0 STARLINK-3967,1 52636U 22052AQ  23074.12804308  .00059468  00000-0  37193-2 0  9992,2 52636  53.2139 124.8418 0000335 131.6372 228.4649 15.08878850 46734,6917.762,95.435,539.858,539.395,0.0
52636.0,STARLINK-3967,PAYLOAD,2023-03-15 12:36:40,15.08922865,2.97e-05,53.2141,123.0574,124.6813,235.4207,0.0037041,0.00059294,0.0,0 STARLINK-3967,1 52636U 22052AQ  23074.52546743  .00059294  00000-0  37041-2 0  9991,2 52636  53.2141 123.0574 0000297 124.6813 235.4207 15.08922865 46419,6917.627,95.432,539.698,539.287,0.0
52636.0,STARLINK-3967,PAYLOAD,2023-03-16 12:27:27,15.08863748,9.09e-05,53.2146,118.5988,93.6663,266.4433,0.0011465,0.00018017,0.0,0 STARLINK-3967,1 52636U 22052AQ  23075.51906363  .00018017  00000-0  11465-2 0  9999,2 52636  53.2146 118.5988 0000909  93.6663 266.4433 15.08863748 46947,6917.808,95.436,540.302,539.044,0.0
52636.0,STARLINK-3967,PAYLOAD,2023-03-16 14:02:50,15.08862896,9.49e-05,53.2145,118.3012,73.0253,287.0843,0.00095126,0.00014893,0.0,0 STARLINK-3967,1 52636U 22052AQ  23075.58530324  .00014893  00000-0  95126-3 0  9991,2 52636  53.2145 118.3012 0000949  73.0253 287.0843 15.08862896 46579,6917.81,95.436,540.332,539.019,0.0
52636.0,STARLINK-3967,PAYLOAD,2023-03-16 20:24:23,15.08833412,0.0001149,53.2152,117.1104,98.2583,261.8539,-0.00016136,-2.854e-05,0.0,0 STARLINK-3967,1 52636U 22052AQ  23075.85026850 -.00002854  00000-0 -16136-3 0  9995,2 52636  53.2152 117.1104 0001149  98.2583 261.8539 15.08833412 46994,6917.901,95.438,540.56,538.971,0.0
52636.0,STARLINK-3967,PAYLOAD,2023-03-17 09:07:28,15.08824082,0.0001102,53.2152,114.7309,114.4323,245.6784,0.00090937,0.00014208,0.0,0 STARLINK-3967,1 52636U 22052AQ  23076.38019591  .00014208  00000-0  90937-3 0  9993,2 52636  53.2152 114.7309 0001102 114.4323 245.6784 15.08824082 46698,6917.929,95.439,540.556,539.032,0.0
52636.0,STARLINK-3967,PAYLOAD,2023-03-18 08:58:15,15.08859815,0.0001131,53.2152,110.2713,105.5908,254.5209,0.0011586,0.00018209,0.0,0 STARLINK-3967,1 52636U 22052AQ  23077.37379432  .00018209  00000-0  11586-2 0  9993,2 52636  53.2152 110.2713 0001131 105.5908 254.5209 15.08859815 47223,6917.82,95.436,540.467,538.902,0.0
52636.0,STARLINK-3967,PAYLOAD,2023-03-18 18:30:34,15.08848819,0.0001488,53.2151,108.4861,91.1515,268.9647,0.0003585,5.424e-05,0.0,0 STARLINK-3967,1 52636U 22052AQ  23077.77123547  .00005424  00000-0  35850-3 0  9997,2 52636  53.2151 108.4861 0001488  91.1515 268.9647 15.08848819 47287,6917.853,95.437,540.748,538.689,0.0
52636.0,STARLINK-3967,PAYLOAD,2023-03-19 08:49:02,15.08843948,0.0001301,53.2158,105.8133,102.643,257.4708,2.9664e-05,1.84e-06,0.0,0 STARLINK-3967,1 52636U 22052AQ  23078.36739422  .00000184  00000-0  29664-4 0  9993,2 52636  53.2158 105.8133 0001301 102.6430 257.4708 15.08843948 47374,6917.868,95.437,540.633,538.833,0.0
52636.0,STARLINK-3967,PAYLOAD,2023-03-19 18:21:21,15.08844908,9.56e-05,53.2141,104.0253,86.0667,274.0434,0.00047343,7.256e-05,0.0,0 STARLINK-3967,1 52636U 22052AQ  23078.76483382  .00007256  00000-0  47343-3 0  9998,2 52636  53.2141 104.0253 0000956  86.0667 274.0434 15.08844908 47055,6917.865,95.437,540.392,539.069,0.0
52636.0,STARLINK-3967,PAYLOAD,2023-03-20 10:15:12,15.08848407,0.0001168,53.2149,101.0522,92.811,267.3016,0.00014202,1.974e-05,0.0,0 STARLINK-3967,1 52636U 22052AQ  23079.42723159  .00001974  00000-0  14202-3 0  9990,2 52636  53.2149 101.0522 0001168  92.8110 267.3016 15.08848407 47535,6917.855,95.437,540.528,538.912,0.0
52636.0,STARLINK-3967,PAYLOAD,2023-03-20 18:12:08,15.08842633,0.0001152,53.2143,99.5654,93.0066,267.1058,8.6821e-05,1.094e-05,0.0,0 STARLINK-3967,1 52636U 22052AQ  23079.75843395  .00001094  00000-0  86821-4 0  9991,2 52636  53.2143  99.5654 0001152  93.0066 267.1058 15.08842633 47205,6917.872,95.437,540.534,538.94,0.0
52636.0,STARLINK-3967,PAYLOAD,2023-03-21 00:33:41,15.08841815,7.93e-05,53.2147,98.3758,110.6568,249.4509,0.00021571,3.147e-05,0.0,0 STARLINK-3967,1 52636U 22052AQ  23080.02339425  .00003147  00000-0  21571-3 0  9998,2 52636  53.2147  98.3758 0000793 110.6568 249.4509 15.08841815 47625,6917.875,95.437,540.288,539.191,0.0
52636.0,STARLINK-3967,PAYLOAD,2023-03-21 08:30:36,15.08846137,0.0001219,53.2146,96.8888,89.1677,270.9455,0.00020293,2.944e-05,0.0,0 STARLINK-3967,1 52636U 22052AQ  23080.35459315  .00002944  00000-0  20293-3 0  9999,2 52636  53.2146  96.8888 0001219  89.1677 270.9455 15.08846137 47290,6917.862,95.437,540.57,538.883,0.0
52636.0,STARLINK-3967,PAYLOAD,2023-03-21 18:02:55,15.08842323,0.000129,53.2148,95.1037,84.1217,275.9922,0.0001223,1.659e-05,0.0,0 STARLINK-3967,1 52636U 22052AQ  23080.75203429  .00001659  00000-0  12230-3 0  9990,2 52636  53.2148  95.1037 0001290  84.1217 275.9922 15.08842323 47358,6917.873,95.437,540.631,538.846,0.0
52636.0,STARLINK-3967,PAYLOAD,2023-03-22 05:10:37,15.08837691,0.0001405,53.2152,93.0223,82.9164,277.1988,3.6966e-05,3e-06,0.0,0 STARLINK-3967,1 52636U 22052AQ  23081.21571746  .00000300  00000-0  36966-4 0  9997,2 52636  53.2152  93.0223 0001405  82.9164 277.1988 15.08837691 47800,6917.887,95.438,540.724,538.78,0.0
52636.0,STARLINK-3967,PAYLOAD,2023-03-22 17:53:42,15.08844631,0.000144,53.2159,90.6444,84.5652,275.5505,8.2068e-05,1.019e-05,0.0,0 STARLINK-3967,1 52636U 22052AQ  23081.74563501  .00001019  00000-0  82068-4 0  9997,2 52636  53.2159  90.6444 0001440  84.5652 275.5505 15.08844631 47500,6917.866,95.437,540.727,538.735,0.0
52636.0,STARLINK-3967,PAYLOAD,2023-03-23 06:36:47,15.08847396,0.0001272,53.2151,88.264,87.4516,272.6622,0.00017244,2.458e-05,0.0,0 STARLINK-3967,1 52636U 22052AQ  23082.27555307  .00002458  00000-0  17244-3 0  9992,2 52636  53.2151  88.2640 0001272  87.4516 272.6622 15.08847396 47966,6917.858,95.437,540.603,538.843,0.0
52636.0,STARLINK-3967,PAYLOAD,2023-03-23 17:44:29,15.08845926,0.0001005,53.2162,86.1839,66.1643,293.9454,0.00015814,2.23e-05,0.0,0 STARLINK-3967,1 52636U 22052AQ  23082.73923326  .00002230  00000-0  15814-3 0  9992,2 52636  53.2162  86.1839 0001005  66.1643 293.9454 15.08845926 47656,6917.862,95.437,540.423,539.032,0.0
52636.0,STARLINK-3967,PAYLOAD,2023-03-24 06:27:34,15.0884948,0.0001244,53.2153,83.8034,82.5742,277.5392,0.00027943,4.163e-05,0.0,0 STARLINK-3967,1 52636U 22052AQ  23083.26915481  .00004163  00000-0  27943-3 0  9997,2 52636  53.2153  83.8034 0001244  82.5742 277.5392 15.08849480 48114,6917.851,95.437,540.577,538.856,0.0
52636.0,STARLINK-3967,PAYLOAD,2023-03-24 11:13:43,15.08862281,0.0001306,53.2156,82.9117,81.4692,278.6448,0.00034952,5.282e-05,0.0,0 STARLINK-3967,1 52636U 22052AQ  23083.46786546  .00005282  00000-0  34952-3 0  9998,2 52636  53.2156  82.9117 0001306  81.4692 278.6448 15.08862281 48141,6917.812,95.436,540.581,538.774,0.0
52636.0,STARLINK-3967,PAYLOAD,2023-03-25 04:42:59,15.08834032,0.0001157,53.2165,79.6413,87.195,272.9175,-2.2982e-05,-6.53e-06,0.0,0 STARLINK-3967,1 52636U 22052AQ  23084.19652047 -.00000653  00000-0 -22982-4 0  9997,2 52636  53.2165  79.6413 0001157  87.1950 272.9175 15.08834032 48256,6917.899,95.438,540.564,538.963,0.0
52636.0,STARLINK-3967,PAYLOAD,2023-03-25 11:04:31,15.08841458,0.0001158,53.216,78.4504,93.1042,267.0083,4.2392e-05,3.87e-06,0.0,0 STARLINK-3967,1 52636U 22052AQ  23084.46147620  .00000387  00000-0  42392-4 0  9992,2 52636  53.2160  78.4504 0001158  93.1042 267.0083 15.08841458 48296,6917.876,95.437,540.542,538.94,0.0
